{
  "type": "FeatureCollection",
  "features": [
    {
      "type": "Feature",
      "properties": {
        "norad_id": 31064,
        "name": "FENGYUN 1C DEB",
        "group": "fengyun-1c-debris",
        "lat": -60.68204764544404,
        "lon": -21.164361614186305,
        "alt_km": 796.4127983287108,
        "timestamp": "2025-12-06T09:34:17.194080+00:00",
        "meta_object_name": "FENGYUN 1C DEB",
        "meta_object_id": "1999-025BFJ",
        "meta_epoch": "2025-12-05T22:10:40.389312",
        "meta_mean_motion": 14.22110754,
        "meta_eccentricity": 0.02419872,
        "meta_inclination": 98.5732,
        "meta_ra_of_asc_node": 322.7914,
        "meta_arg_of_pericenter": 21.3905,
        "meta_mean_anomaly": 10.4925,
        "meta_ephemeris_type": 0,
        "meta_classification_type": "U",
        "meta_norad_cat_id": 31064,
        "meta_element_set_no": 999,
        "meta_rev_at_epoch": 97158,
        "meta_bstar": 0.0006571269,
        "meta_mean_motion_dot": 1.915e-05,
        "meta_mean_motion_ddot": 0,
        "tle_line1": "1 31064U 99025BFJ 25339.92407858  .00001915  00000+0  65713-3 0  9994",
        "tle_line2": "2 31064  98.5732 322.7914 0241987  21.3905  10.4925 14.22110754971587"
      },
      "geometry": {
        "type": "Point",
        "coordinates": [
          -21.164361614186305,
          -60.68204764544404
        ]
      }
    },
    {
      "type": "Feature",
      "properties": {
        "norad_id": 31065,
        "name": "FENGYUN 1C DEB",
        "group": "fengyun-1c-debris",
        "lat": 80.7230952453517,
        "lon": -114.56336763880032,
        "alt_km": 771.9719354827866,
        "timestamp": "2025-12-06T09:34:17.194090+00:00",
        "meta_object_name": "FENGYUN 1C DEB",
        "meta_object_id": "1999-025BFK",
        "meta_epoch": "2025-12-04T08:22:25.849920",
        "meta_mean_motion": 14.2811927,
        "meta_eccentricity": 0.0035761,
        "meta_inclination": 98.4647,
        "meta_ra_of_asc_node": 357.7103,
        "meta_arg_of_pericenter": 55.9686,
        "meta_mean_anomaly": 304.4883,
        "meta_ephemeris_type": 0,
        "meta_classification_type": "U",
        "meta_norad_cat_id": 31065,
        "meta_element_set_no": 999,
        "meta_rev_at_epoch": 64458,
        "meta_bstar": 0.0019014,
        "meta_mean_motion_dot": 4.721e-05,
        "meta_mean_motion_ddot": 0,
        "tle_line1": "1 31065U 99025BFK 25338.34891030  .00004721  00000+0  19014-2 0  9999",
        "tle_line2": "2 31065  98.4647 357.7103 0035761  55.9686 304.4883 14.28119270644584"
      },
      "geometry": {
        "type": "Point",
        "coordinates": [
          -114.56336763880032,
          80.7230952453517
        ]
      }
    },
    {
      "type": "Feature",
      "properties": {
        "norad_id": 31068,
        "name": "FENGYUN 1C DEB",
        "group": "fengyun-1c-debris",
        "lat": -27.012254109242278,
        "lon": 138.39461435633552,
        "alt_km": 827.26225766261,
        "timestamp": "2025-12-06T09:34:17.194101+00:00",
        "meta_object_name": "FENGYUN 1C DEB",
        "meta_object_id": "1999-025BFN",
        "meta_epoch": "2025-12-05T17:16:08.261184",
        "meta_mean_motion": 14.09184379,
        "meta_eccentricity": 0.01654718,
        "meta_inclination": 98.6281,
        "meta_ra_of_asc_node": 322.1831,
        "meta_arg_of_pericenter": 138.0623,
        "meta_mean_anomaly": 223.3359,
        "meta_ephemeris_type": 0,
        "meta_classification_type": "U",
        "meta_norad_cat_id": 31068,
        "meta_element_set_no": 999,
        "meta_rev_at_epoch": 96256,
        "meta_bstar": 0.00021075295,
        "meta_mean_motion_dot": 3.75e-06,
        "meta_mean_motion_ddot": 0,
        "tle_line1": "1 31068U 99025BFN 25339.71954006  .00000375  00000+0  21075-3 0  9999",
        "tle_line2": "2 31068  98.6281 322.1831 0165471 138.0623 223.3359 14.09184379962562"
      },
      "geometry": {
        "type": "Point",
        "coordinates": [
          138.39461435633552,
          -27.012254109242278
        ]
      }
    },
    {
      "type": "Feature",
      "properties": {
        "norad_id": 31069,
        "name": "FENGYUN 1C DEB",
        "group": "fengyun-1c-debris",
        "lat": -7.559345844777482,
        "lon": -41.117560532470165,
        "alt_km": 707.1733907239895,
        "timestamp": "2025-12-06T09:34:17.194111+00:00",
        "meta_object_name": "FENGYUN 1C DEB",
        "meta_object_id": "1999-025BFP",
        "meta_epoch": "2025-12-05T06:21:15.040224",
        "meta_mean_motion": 14.57023128,
        "meta_eccentricity": 0.01047413,
        "meta_inclination": 99.0992,
        "meta_ra_of_asc_node": 138.8633,
        "meta_arg_of_pericenter": 99.9446,
        "meta_mean_anomaly": 261.359,
        "meta_ephemeris_type": 0,
        "meta_classification_type": "U",
        "meta_norad_cat_id": 31069,
        "meta_element_set_no": 999,
        "meta_rev_at_epoch": 98577,
        "meta_bstar": 0.001508615,
        "meta_mean_motion_dot": 7.262e-05,
        "meta_mean_motion_ddot": 0,
        "tle_line1": "1 31069U 99025BFP 25339.26475741  .00007262  00000+0  15086-2 0  9990",
        "tle_line2": "2 31069  99.0992 138.8633 0104741  99.9446 261.3590 14.57023128985774"
      },
      "geometry": {
        "type": "Point",
        "coordinates": [
          -41.117560532470165,
          -7.559345844777482
        ]
      }
    },
    {
      "type": "Feature",
      "properties": {
        "norad_id": 31071,
        "name": "FENGYUN 1C DEB",
        "group": "fengyun-1c-debris",
        "lat": 25.51741600032349,
        "lon": 53.294950386220016,
        "alt_km": 712.5677835449642,
        "timestamp": "2025-12-06T09:34:17.194121+00:00",
        "meta_object_name": "FENGYUN 1C DEB",
        "meta_object_id": "1999-025BFR",
        "meta_epoch": "2025-11-28T11:19:27.812352",
        "meta_mean_motion": 14.52441146,
        "meta_eccentricity": 0.00557097,
        "meta_inclination": 99.0422,
        "meta_ra_of_asc_node": 49.1199,
        "meta_arg_of_pericenter": 325.3377,
        "meta_mean_anomaly": 34.419,
        "meta_ephemeris_type": 0,
        "meta_classification_type": "U",
        "meta_norad_cat_id": 31071,
        "meta_element_set_no": 999,
        "meta_rev_at_epoch": 65287,
        "meta_bstar": 0.0010703966,
        "meta_mean_motion_dot": 4.402e-05,
        "meta_mean_motion_ddot": 0,
        "tle_line1": "1 31071U 99025BFR 25332.47184968  .00004402  00000+0  10704-2 0  9992",
        "tle_line2": "2 31071  99.0422  49.1199 0055709 325.3377  34.4190 14.52441146652870"
      },
      "geometry": {
        "type": "Point",
        "coordinates": [
          53.294950386220016,
          25.51741600032349
        ]
      }
    },
    {
      "type": "Feature",
      "properties": {
        "norad_id": 31072,
        "name": "FENGYUN 1C DEB",
        "group": "fengyun-1c-debris",
        "lat": 32.455774149747654,
        "lon": 171.37783447528298,
        "alt_km": 674.6984418981692,
        "timestamp": "2025-12-06T09:34:17.194131+00:00",
        "meta_object_name": "FENGYUN 1C DEB",
        "meta_object_id": "1999-025BFS",
        "meta_epoch": "2025-12-05T22:47:33.054432",
        "meta_mean_motion": 14.25450198,
        "meta_eccentricity": 0.02105215,
        "meta_inclination": 99.3326,
        "meta_ra_of_asc_node": 344.8966,
        "meta_arg_of_pericenter": 117.0638,
        "meta_mean_anomaly": 245.2192,
        "meta_ephemeris_type": 0,
        "meta_classification_type": "U",
        "meta_norad_cat_id": 31072,
        "meta_element_set_no": 999,
        "meta_rev_at_epoch": 96546,
        "meta_bstar": 0.00090205262,
        "meta_mean_motion_dot": 2.635e-05,
        "meta_mean_motion_ddot": 0,
        "tle_line1": "1 31072U 99025BFS 25339.94968813  .00002635  00000+0  90205-3 0  9992",
        "tle_line2": "2 31072  99.3326 344.8966 0210521 117.0638 245.2192 14.25450198965468"
      },
      "geometry": {
        "type": "Point",
        "coordinates": [
          171.37783447528298,
          32.455774149747654
        ]
      }
    },
    {
      "type": "Feature",
      "properties": {
        "norad_id": 31073,
        "name": "FENGYUN 1C DEB",
        "group": "fengyun-1c-debris",
        "lat": 23.82476026115021,
        "lon": 13.886339730294404,
        "alt_km": 836.6213737615553,
        "timestamp": "2025-12-06T09:34:17.194141+00:00",
        "meta_object_name": "FENGYUN 1C DEB",
        "meta_object_id": "1999-025BFT",
        "meta_epoch": "2025-12-03T01:37:19.680960",
        "meta_mean_motion": 14.24707889,
        "meta_eccentricity": 0.00458738,
        "meta_inclination": 99.2206,
        "meta_ra_of_asc_node": 186.2773,
        "meta_arg_of_pericenter": 313.0184,
        "meta_mean_anomaly": 46.7154,
        "meta_ephemeris_type": 0,
        "meta_classification_type": "U",
        "meta_norad_cat_id": 31073,
        "meta_element_set_no": 999,
        "meta_rev_at_epoch": 96945,
        "meta_bstar": 0.0015631033,
        "meta_mean_motion_dot": 3.631e-05,
        "meta_mean_motion_ddot": 0,
        "tle_line1": "1 31073U 99025BFT 25337.06758890  .00003631  00000+0  15631-2 0  9992",
        "tle_line2": "2 31073  99.2206 186.2773 0045873 313.0184  46.7154 14.24707889969455"
      },
      "geometry": {
        "type": "Point",
        "coordinates": [
          13.886339730294404,
          23.82476026115021
        ]
      }
    }
  ]
}